GOSAT-GW (IBUKI GW)     
1 64694U 25141A   26161.23563979  .00000601  00000+0  11436-3 0  9996
2 64694  98.0569  98.6658 0001442  84.7252 275.4117 14.67553589 50824
IONOSFERA-M 3           
1 64876U 25155A   26161.27733249  .00000038  00000+0  37160-4 0  9993
2 64876  98.6022 123.3564 0000587 170.6015 189.5174 14.21485301 45423
IONOSFERA-M 4           
1 64877U 25155B   26161.24179640  .00000040  00000+0  37884-4 0  9996
2 64877  98.6020 123.2393 0000803 118.1587 241.9672 14.21487488 45416
MICROCARB               
1 64899U 25156A   26161.21773652  .00000423  00000+0  74718-4 0  9993
2 64899  97.9831 238.4794 0015065 296.6210  63.3453 14.72318385 46944
CO3D 3                  
1 64900U 25156B   26161.47370874  .00003818  00000+0  17937-3 0  9993
2 64900  97.4329 240.2632 0001196 136.6429 223.4901 15.20206800 48515
CO3D 4                  
1 64901U 25156C   26159.95993788  .00000283  00000+0  16170-4 0  9991
2 64901  97.4332 238.7713 0000729  27.5039 332.6234 15.20199351 48286
CO3D 2                  
1 64902U 25156D   26160.84811311  .00013638  00000+0  63190-3 0  9994
2 64902  97.4328 239.5455 0001407 112.5881 247.5503 15.20204236 48415
CO3D 1                  
1 64903U 25156E   26161.50648701  .00004226  00000+0  19820-3 0  9994
2 64903  97.4329 240.1946 0001241 117.1866 242.9496 15.20209496 48514
PRSC-S1                 
1 65055U 25164A   26161.17001934  .00004567  00000+0  31616-3 0  9991
2 65055  41.1314 327.3312 0007461 302.0166  57.9922 15.06393571 47379
SENTINEL-6B             
1 66514U 25264A   26161.29322558 -.00000026  00000+0  15364-3 0  9993
2 66514  66.0387 149.4973 0008039 269.2152  90.7942 12.80929851 26282
CAS500-3                
1 66655U 25274F   26161.29038815  .00001109  00000+0  12574-3 0  9992
2 66655  97.7447  89.4985 0006405 128.3418 231.8375 14.88304310 29128
CSG-3                   
1 67304U 26001A   26161.51548094  .00000270  00000+0  40515-4 0  9998
2 67304  97.8886 345.2138 0001326  94.5463 265.5902 14.82149189 23479
PRSC-E03                
1 68835U 26092A   26161.36179229  .00002131  00000+0  14822-3 0  9990
2 68835  37.9997 129.9272 0004855 315.6385  44.3987 15.06634943  6924
CAS500-2                
1 69013U 26100AK  26161.43981087  .00005706  00000+0  26373-3 0  9995
2 69013  97.4085  59.4110 0011230  55.5432 304.6863 15.20510391  5782
