OBJECT_NAME,OBJECT_ID,EPOCH,MEAN_MOTION,ECCENTRICITY,INCLINATION,RA_OF_ASC_NODE,ARG_OF_PERICENTER,MEAN_ANOMALY,EPHEMERIS_TYPE,CLASSIFICATION_TYPE,NORAD_CAT_ID,ELEMENT_SET_NO,REV_AT_EPOCH,BSTAR,MEAN_MOTION_DOT,MEAN_MOTION_DDOT
GOSAT-GW (IBUKI GW),2025-141A,2026-06-10T05:39:19.277856,14.67553589,.00014422,98.0569,98.6658,84.7252,275.4117,0,U,64694,999,5082,.11436009E-3,.601E-5,0
IONOSFERA-M 3,2025-155A,2026-06-10T06:39:21.527136,14.21485301,.00005874,98.6022,123.3564,170.6015,189.5174,0,U,64876,999,4542,.37160185E-4,.38E-6,0
IONOSFERA-M 4,2025-155B,2026-06-10T05:48:11.208960,14.21487488,.0000803,98.6020,123.2393,118.1587,241.9672,0,U,64877,999,4541,.37883813E-4,.4E-6,0
MICROCARB,2025-156A,2026-06-10T05:13:32.435328,14.72318385,.0015065,97.9831,238.4794,296.6210,63.3453,0,U,64899,999,4694,.74718E-4,.423E-5,0
CO3D 3,2025-156B,2026-06-10T11:22:08.435136,15.20206800,.0001196,97.4329,240.2632,136.6429,223.4901,0,U,64900,999,4851,.17937E-3,.3818E-4,0
CO3D 4,2025-156C,2026-06-08T23:02:18.632832,15.20199351,.0000729,97.4332,238.7713,27.5039,332.6234,0,U,64901,999,4828,.16169789E-4,.283E-5,0
CO3D 2,2025-156D,2026-06-09T20:21:16.972704,15.20204236,.00014076,97.4328,239.5455,112.5881,247.5503,0,U,64902,999,4841,.6318995E-3,.13638E-3,0
CO3D 1,2025-156E,2026-06-10T12:09:20.477664,15.20209496,.0001241,97.4329,240.1946,117.1866,242.9496,0,U,64903,999,4851,.1982E-3,.4226E-4,0
PRSC-S1,2025-164A,2026-06-10T04:04:49.670976,15.06393571,.00074619,41.1314,327.3312,302.0166,57.9922,0,U,65055,999,4737,.31615597E-3,.4567E-4,0
SENTINEL-6B,2025-264A,2026-06-10T07:02:14.690112,12.80929851,.0008039,66.0387,149.4973,269.2152,90.7942,0,U,66514,999,2628,.15364E-3,-.26E-6,0
CAS500-3,2025-274F,2026-06-10T06:58:09.536160,14.88304310,.0006405,97.7447,89.4985,128.3418,231.8375,0,U,66655,999,2912,.12574E-3,.1109E-4,0
CSG-3,2026-001A,2026-06-10T12:22:17.553216,14.82149189,.0001326,97.8886,345.2138,94.5463,265.5902,0,U,67304,999,2347,.40515E-4,.27E-5,0
PRSC-E03,2026-092A,2026-06-10T08:40:58.853856,15.06634943,.0004855,37.9997,129.9272,315.6385,44.3987,0,U,68835,999,692,.14822E-3,.2131E-4,0
CAS500-2,2026-100AK,2026-06-10T10:33:19.659168,15.20510391,.001123,97.4085,59.4110,55.5432,304.6863,0,U,69013,999,578,.26373E-3,.5706E-4,0
